BEIDOU 3 (C01)          
1 36287U 10001A   20363.23833122 -.00000261  00000-0  00000-0 0  9996
2 36287   1.6342  38.4923 0003467 120.7190 164.1588  1.00269684 40141
BEIDOU 5 (C06)          
1 36828U 10036A   20363.55650490  .00000017  00000-0  00000+0 0  9992
2 36828  54.1668 181.1744 0100495 233.3906   1.1541  1.00255330 38192
BEIDOU 6 (C04)          
1 37210U 10057A   20363.30260581 -.00000091  00000-0  00000-0 0  9996
2 37210   0.8482  48.3439 0006614 188.2507 129.5533  1.00273792 37263
BEIDOU 7 (C07)          
1 37256U 10068A   20363.17093205 -.00000219  00000-0  00000-0 0  9992
2 37256  51.1581 296.0404 0079807 215.5602 123.0323  1.00249340 36773
BEIDOU 8 (C08)          
1 37384U 11013A   20363.48837786 -.00000197  00000-0  00000+0 0  9993
2 37384  59.5075  59.6584 0053954 205.9415 123.1803  1.00302027 35648
BEIDOU 9 (C09)          
1 37763U 11038A   20362.89634786  .00000036  00000-0  00000-0 0  9992
2 37763  54.4488 183.5930 0072656 223.1038 105.5453  1.00254561 34616
BEIDOU 10 (C10)         
1 37948U 11073A   20362.95955464 -.00000156  00000-0  00000-0 0  9996
2 37948  51.2597 295.6483 0070931 216.2338  24.3127  1.00291731 33373
BEIDOU 11 (C05)         
1 38091U 12008A   20363.23507779  .00000076  00000-0  00000-0 0  9999
2 38091   1.8914  70.9967 0003614 233.4616 296.0707  1.00269588 32457
BEIDOU 12 (C11)         
1 38250U 12018A   20363.52331097 -.00000066  00000-0  00000+0 0  9996
2 38250  56.7540  11.2578 0024915 247.1943 285.7229  1.86234245 59107
BEIDOU 13 (C12)         
1 38251U 12018B   20363.14601539 -.00000067  00000-0  00000-0 0  9998
2 38251  56.6774  10.6283 0015894 250.0322  74.3902  1.86232775 59096
BEIDOU 15 (C14)         
1 38775U 12050B   20363.11869713  .00000009  00000-0  00000-0 0  9997
2 38775  55.1342 129.7617 0012396 323.4330 180.0144  1.86232217 56476
BEIDOU 16 (C02)         
1 38953U 12059A   20363.16825494 -.00000155  00000-0  00000-0 0  9990
2 38953   1.5618  84.7197 0008870 255.6092 261.3606  1.00269903 30028
BEIDOU 17 (C31)         
1 40549U 15019A   20363.02681780 -.00000161  00000-0  00000-0 0  9993
2 40549  52.7642 318.9694 0037174 189.8212  48.2961  1.00303000 21058
BEIDOU 18 (C57)         
1 40748U 15037A   20363.52341154 -.00000068  00000-0  00000+0 0  9992
2 40748  55.9431   9.8070 0003745 315.6549 171.8860  1.86233381 36935
BEIDOU 19 (C58)         
1 40749U 15037B   20363.32345426 -.00000069  00000-0  00000+0 0  9998
2 40749  55.9471   9.8029 0006739 292.1158 198.2046  1.86232093 36922
BEIDOU 20 (C18)         
1 40938U 15053A   20363.46234792 -.00000135  00000-0  00000+0 0  9998
2 40938  52.3286 282.0180 0046675 192.2010 246.2103  1.00274982 19344
BEIDOU IGSO-6 (C13)     
1 41434U 16021A   20362.97344843 -.00000150  00000-0  00000-0 0  9998
2 41434  57.3128  58.4588 0043136 208.9425 273.5701  1.00261819 17459
BEIDOU-2 G7 (C03)       
1 41586U 16037A   20363.24537164 -.00000335  00000-0  00000-0 0  9999
2 41586   1.8944  68.9661 0008209 355.6346 231.4015  1.00268774 16760
BEIDOU-3 M1 (C19)       
1 43001U 17069A   20362.00765640  .00000010  00000-0  00000-0 0  9993
2 43001  55.2889 129.7281 0007467 285.9513 349.0709  1.86231654 21386
BEIDOU-3 M2 (C20)       
1 43002U 17069B   20363.14871405  .00000009  00000-0  00000-0 0  9995
2 43002  55.2885 129.7247 0006269 316.0263  47.6791  1.86231403 21409
BEIDOU-3 M3 (C27)       
1 43107U 18003A   20363.15944410 -.00000070  00000-0  00000-0 0  9997
2 43107  55.3820  10.9765 0003227  28.2415 148.5288  1.86232457 20167
BEIDOU-3 M4 (C28)       
1 43108U 18003B   20363.09245512 -.00000071  00000-0  00000-0 0  9999
2 43108  55.3759  10.9700 0004697 247.4139 289.6252  1.86232525 20162
BEIDOU-3 M5 (C21)       
1 43207U 18018A   20362.73880827  .00000009  00000-0  00000-0 0  9999
2 43207  55.2487 129.8361 0004562 345.4569  14.4886  1.86231625 19546
BEIDOU-3 M6 (C22)       
1 43208U 18018B   20362.80556515  .00000009  00000-0  00000-0 0  9992
2 43208  55.2482 129.8388 0006082 299.4471  60.4508  1.86231717 19544
BEIDOU-3 M7 (C29)       
1 43245U 18029A   20362.81514758 -.00000072  00000-0  00000-0 0  9990
2 43245  55.3217   8.7893 0001729 266.4251 309.6196  1.86232566 18690
BEIDOU-3 M8 (C30)       
1 43246U 18029B   20363.18688600 -.00000071  00000-0  10000-3 0  9993
2 43246  55.3182   8.8060 0004742 325.6346 185.7015  1.86233113 18692
BEIDOU IGSO-7 (C16)     
1 43539U 18057A   20362.97132921 -.00000033  00000-0  00000-0 0  9999
2 43539  55.0488 180.4988 0030932 212.0252 168.8945  1.00265844  9139
BEIDOU-3 M9 (C23)       
1 43581U 18062A   20363.37771425  .00000050  00000-0  00000+0 0  9992
2 43581  54.4745 250.4735 0003912 297.9727 190.9873  1.86231784 16448
BEIDOU-3 M10 (C24)      
1 43582U 18062B   20363.07285227  .00000048  00000-0  00000-0 0  9998
2 43582  54.4741 250.4726 0006376 357.3477  18.3949  1.86232280 16444
BEIDOU-3 M11 (C25)      
1 43602U 18067A   20363.03144374  .00000051  00000-0  00000-0 0  9993
2 43602  54.5477 249.0426 0007458 356.7539  33.7577  1.86231462 15931
BEIDOU-3 M12 (C26)      
1 43603U 18067B   20363.02621160  .00000051  00000-0  00000-0 0  9996
2 43603  54.5451 249.0112 0004796 349.3016 308.1986  1.86231406 15948
BEIDOU-3 M13 (C32)      
1 43622U 18072A   20362.95259300  .00000008  00000-0  00000-0 0  9999
2 43622  55.2124 129.4027 0004301 278.3821   0.1605  1.86231558 15458
BEIDOU-3 M14 (C33)      
1 43623U 18072B   20363.13702929  .00000008  00000-0  00000-0 0  9991
2 43623  55.2143 129.3872 0002907 318.8580 173.5767  1.86231663 15461
BEIDOU-3 M15 (C34)      
1 43647U 18078A   20363.20327208 -.00000071  00000-0  10000-3 0  9999
2 43647  55.2143   8.9788 0006877 336.5870  95.4141  1.86233070 14971
BEIDOU-3 M16 (C35)      
1 43648U 18078B   20362.95806794 -.00000072  00000-0  10000-3 0  9994
2 43648  55.2102   8.9951 0004512 339.3804 196.9738  1.86232531 14982
BEIDOU-3 G1 (C59)       
1 43683U 18085A   20363.25130370 -.00000255  00000-0  00000-0 0  9994
2 43683   1.3623 244.1630 0004361   6.6206  76.9268  1.00273940  8041
BEIDOU-3 M17 (C36)      
1 43706U 18093A   20363.22505838  .00000049  00000-0  00000-0 0  9991
2 43706  54.5552 250.3251 0009284 278.1616 333.4141  1.86231828 14339
BEIDOU-3 M18 (C37)      
1 43707U 18093B   20363.48542472  .00000051  00000-0  00000+0 0  9997
2 43707  54.5549 250.3050 0008702 302.9816 213.8541  1.86232073 14344
BEIDOU-3 IGSO-1 (C38)   
1 44204U 19023A   20362.40583097 -.00000220  00000-0  00000-0 0  9993
2 44204  55.7730  58.8005 0018158 199.0053  97.6166  1.00291235  6328
BEIDOU-2 G8             
1 44231U 19027A   20363.29319279 -.00000225  00000-0  00000-0 0  9999
2 44231   0.5557 307.8042 0007970 276.9585 122.5665  1.00269407  6065
BEIDOU-3 IGSO-2 (C39)   
1 44337U 19035A   20363.48778057 -.00000031  00000-0  00000+0 0  9993
2 44337  55.0829 176.5394 0016507 183.6853  19.9894  1.00282303  5677
BEIDOU-3 M23 (C45)      
1 44542U 19061A   20362.14920367  .00000039  00000-0  10000-3 0  9997
2 44542  54.7790 250.3968 0009083 335.0990 319.4570  1.86231707  8579
BEIDOU-3 M24 (C46)      
1 44543U 19061B   20362.87052137  .00000047  00000-0  10000-3 0  9998
2 44543  54.7767 250.3420 0006327 329.7288 359.0644  1.86231992  8595
BEIDOU-3 IGSO-3         
1 44709U 19073A   20362.01010282 -.00000193  00000-0  00000-0 0  9995
2 44709  58.1108 301.9277 0020039 197.4756  68.3262  1.00275399  4413
BEIDOU-3 M21            
1 44793U 19078A   20360.74896084 -.00000079  00000-0  10000-3 0  9990
2 44793  55.0606   9.1499 0006512 343.4354 197.7235  1.86232681  7416
BEIDOU-3 M22            
1 44794U 19078B   20363.02523973 -.00000072  00000-0  10000-3 0  9992
2 44794  55.0368   9.0747 0004701 332.8105 205.1368  1.86233088  7458
BEIDOU-3 M19            
1 44864U 19090A   20363.00900110  .00000008  00000-0  00000-0 0  9998
2 44864  55.1480 129.6410 0014113 259.6694 102.0307  1.86231755  7047
BEIDOU-3 M20            
1 44865U 19090B   20363.52176313  .00000009  00000-0  00000+0 0  9996
2 44865  55.1501 129.6541 0012570 277.5353 157.8777  1.86231714  7036
BEIDOU-3 G2             
1 45344U 20017A   20363.45465105 -.00000118  00000-0  00000+0 0  9994
2 45344   2.6654 332.2432 0001290 318.5563  50.3053  1.00271777  3255
BEIDOU-3 G3             
1 45807U 20040A   20363.24528441 -.00000329  00000-0  00000-0 0  9999
2 45807   2.6784 298.3995 0009615  14.7012 342.8961  1.00267787  2052
